[{"OBJECT_NAME":"ALOS (DAICHI)","OBJECT_ID":"2006-002A","EPOCH":"2026-03-14T11:20:25.139616","MEAN_MOTION":14.69827339,"ECCENTRICITY":7.721e-5,"INCLINATION":98.1224,"RA_OF_ASC_NODE":29.4041,"ARG_OF_PERICENTER":65.5936,"MEAN_ANOMALY":294.535,"EPHEMERIS_TYPE":0,"CLASSIFICATION_TYPE":"U","NORAD_CAT_ID":28931,"ELEMENT_SET_NO":999,"REV_AT_EPOCH":7418,"BSTAR":0.00027114661,"MEAN_MOTION_DOT":1.57e-5,"MEAN_MOTION_DDOT":0},{"OBJECT_NAME":"H-2A R/B","OBJECT_ID":"2006-002B","EPOCH":"2026-03-14T08:38:24.730944","MEAN_MOTION":15.16531479,"ECCENTRICITY":0.00520342,"INCLINATION":98.241,"RA_OF_ASC_NODE":220.7857,"ARG_OF_PERICENTER":225.0507,"MEAN_ANOMALY":134.6499,"EPHEMERIS_TYPE":0,"CLASSIFICATION_TYPE":"U","NORAD_CAT_ID":28932,"ELEMENT_SET_NO":999,"REV_AT_EPOCH":9514,"BSTAR":0.00064834343,"MEAN_MOTION_DOT":0.00013019,"MEAN_MOTION_DDOT":0},{"OBJECT_NAME":"RESURS-DK 1","OBJECT_ID":"2006-021A","EPOCH":"2026-03-14T13:27:35.209152","MEAN_MOTION":15.12784346,"ECCENTRICITY":0.00013607,"INCLINATION":69.9325,"RA_OF_ASC_NODE":224.4218,"ARG_OF_PERICENTER":156.3357,"MEAN_ANOMALY":203.7872,"EPHEMERIS_TYPE":0,"CLASSIFICATION_TYPE":"U","NORAD_CAT_ID":29228,"ELEMENT_SET_NO":999,"REV_AT_EPOCH":8826,"BSTAR":0.00025097479,"MEAN_MOTION_DOT":4.309e-5,"MEAN_MOTION_DDOT":0},{"OBJECT_NAME":"CZ-4B R/B","OBJECT_ID":"2006-046C","EPOCH":"2026-03-14T13:21:25.715232","MEAN_MOTION":15.16959769,"ECCENTRICITY":0.00317699,"INCLINATION":97.5589,"RA_OF_ASC_NODE":118.4525,"ARG_OF_PERICENTER":249.6387,"MEAN_ANOMALY":110.1432,"EPHEMERIS_TYPE":0,"CLASSIFICATION_TYPE":"U","NORAD_CAT_ID":29507,"ELEMENT_SET_NO":999,"REV_AT_EPOCH":6078,"BSTAR":0.00029980694,"MEAN_MOTION_DOT":5.924e-5,"MEAN_MOTION_DDOT":0},{"OBJECT_NAME":"CZ-2C R/B","OBJECT_ID":"2007-010B","EPOCH":"2026-03-14T14:05:12.942240","MEAN_MOTION":14.20248334,"ECCENTRICITY":0.00578506,"INCLINATION":98.3982,"RA_OF_ASC_NODE":186.6204,"ARG_OF_PERICENTER":280.1051,"MEAN_ANOMALY":79.3603,"EPHEMERIS_TYPE":0,"CLASSIFICATION_TYPE":"U","NORAD_CAT_ID":31114,"ELEMENT_SET_NO":999,"REV_AT_EPOCH":98041,"BSTAR":9.3551287e-5,"MEAN_MOTION_DOT":1.62e-6,"MEAN_MOTION_DDOT":0},{"OBJECT_NAME":"COSMO-SKYMED 1","OBJECT_ID":"2007-023A","EPOCH":"2026-03-14T14:41:35.407968","MEAN_MOTION":14.96582605,"ECCENTRICITY":0.00015982,"INCLINATION":97.8882,"RA_OF_ASC_NODE":264.6838,"ARG_OF_PERICENTER":94.6063,"MEAN_ANOMALY":265.5341,"EPHEMERIS_TYPE":0,"CLASSIFICATION_TYPE":"U","NORAD_CAT_ID":31598,"ELEMENT_SET_NO":999,"REV_AT_EPOCH":1564,"BSTAR":0.00048502998,"MEAN_MOTION_DOT":5.464e-5,"MEAN_MOTION_DDOT":0},{"OBJECT_NAME":"COSMOS 2428","OBJECT_ID":"2007-029A","EPOCH":"2026-03-14T15:10:01.535808","MEAN_MOTION":14.12947079,"ECCENTRICITY":0.000932,"INCLINATION":70.9438,"RA_OF_ASC_NODE":192.9701,"ARG_OF_PERICENTER":272.0705,"MEAN_ANOMALY":87.9349,"EPHEMERIS_TYPE":0,"CLASSIFICATION_TYPE":"U","NORAD_CAT_ID":31792,"ELEMENT_SET_NO":999,"REV_AT_EPOCH":96479,"BSTAR":3.2118717e-5,"MEAN_MOTION_DOT":1.2e-7,"MEAN_MOTION_DDOT":0},{"OBJECT_NAME":"SL-16 R/B","OBJECT_ID":"2007-029B","EPOCH":"2026-03-14T14:10:36.659712","MEAN_MOTION":14.14835383,"ECCENTRICITY":0.00022867,"INCLINATION":70.9758,"RA_OF_ASC_NODE":162.0835,"ARG_OF_PERICENTER":276.2806,"MEAN_ANOMALY":181.8581,"EPHEMERIS_TYPE":0,"CLASSIFICATION_TYPE":"U","NORAD_CAT_ID":31793,"ELEMENT_SET_NO":999,"REV_AT_EPOCH":96606,"BSTAR":0.00015487159,"MEAN_MOTION_DOT":2.51e-6,"MEAN_MOTION_DDOT":0},{"OBJECT_NAME":"KORONAS-FOTON","OBJECT_ID":"2009-003A","EPOCH":"2026-03-14T15:02:47.455296","MEAN_MOTION":15.4343552,"ECCENTRICITY":0.00116623,"INCLINATION":82.4272,"RA_OF_ASC_NODE":270.7436,"ARG_OF_PERICENTER":133.5624,"MEAN_ANOMALY":226.6594,"EPHEMERIS_TYPE":0,"CLASSIFICATION_TYPE":"U","NORAD_CAT_ID":33504,"ELEMENT_SET_NO":999,"REV_AT_EPOCH":94650,"BSTAR":0.00033820772,"MEAN_MOTION_DOT":0.00015202,"MEAN_MOTION_DDOT":0},{"OBJECT_NAME":"CZ-2C R/B","OBJECT_ID":"2011-030B","EPOCH":"2026-03-14T11:39:03.705120","MEAN_MOTION":14.81242916,"ECCENTRICITY":0.00519498,"INCLINATION":97.8546,"RA_OF_ASC_NODE":30.6523,"ARG_OF_PERICENTER":336.4178,"MEAN_ANOMALY":136.704,"EPHEMERIS_TYPE":0,"CLASSIFICATION_TYPE":"U","NORAD_CAT_ID":37731,"ELEMENT_SET_NO":999,"REV_AT_EPOCH":79080,"BSTAR":0.00023673259,"MEAN_MOTION_DOT":1.832e-5,"MEAN_MOTION_DDOT":0},{"OBJECT_NAME":"H-2A R/B","OBJECT_ID":"2012-025E","EPOCH":"2026-03-14T14:43:57.529056","MEAN_MOTION":14.95210925,"ECCENTRICITY":0.00432381,"INCLINATION":98.4734,"RA_OF_ASC_NODE":41.0545,"ARG_OF_PERICENTER":297.8386,"MEAN_ANOMALY":61.8454,"EPHEMERIS_TYPE":0,"CLASSIFICATION_TYPE":"U","NORAD_CAT_ID":38341,"ELEMENT_SET_NO":999,"REV_AT_EPOCH":74895,"BSTAR":0.0003483712,"MEAN_MOTION_DOT":3.831e-5,"MEAN_MOTION_DDOT":0},{"OBJECT_NAME":"SHIJIAN-16 (SJ-16)","OBJECT_ID":"2013-057A","EPOCH":"2026-03-14T15:45:57.247776","MEAN_MOTION":14.92370901,"ECCENTRICITY":0.00153544,"INCLINATION":74.9735,"RA_OF_ASC_NODE":175.6855,"ARG_OF_PERICENTER":99.7692,"MEAN_ANOMALY":260.5231,"EPHEMERIS_TYPE":0,"CLASSIFICATION_TYPE":"U","NORAD_CAT_ID":39358,"ELEMENT_SET_NO":999,"REV_AT_EPOCH":67224,"BSTAR":0.00019849976,"MEAN_MOTION_DOT":2.007e-5,"MEAN_MOTION_DDOT":0},{"OBJECT_NAME":"SL-4 R/B","OBJECT_ID":"2014-021B","EPOCH":"2026-03-14T15:04:19.846272","MEAN_MOTION":15.39357154,"ECCENTRICITY":0.00971017,"INCLINATION":51.6067,"RA_OF_ASC_NODE":313.1847,"ARG_OF_PERICENTER":120.9779,"MEAN_ANOMALY":240.0789,"EPHEMERIS_TYPE":0,"CLASSIFICATION_TYPE":"U","NORAD_CAT_ID":39679,"ELEMENT_SET_NO":999,"REV_AT_EPOCH":65703,"BSTAR":0.00040571863,"MEAN_MOTION_DOT":0.00018593,"MEAN_MOTION_DDOT":0},{"OBJECT_NAME":"ALOS-2","OBJECT_ID":"2014-029A","EPOCH":"2026-03-14T14:07:03.961920","MEAN_MOTION":14.79526276,"ECCENTRICITY":0.00014795,"INCLINATION":97.9189,"RA_OF_ASC_NODE":172.1146,"ARG_OF_PERICENTER":93.6447,"MEAN_ANOMALY":266.4934,"EPHEMERIS_TYPE":0,"CLASSIFICATION_TYPE":"U","NORAD_CAT_ID":39766,"ELEMENT_SET_NO":999,"REV_AT_EPOCH":63759,"BSTAR":0.00028866365,"MEAN_MOTION_DOT":2.108e-5,"MEAN_MOTION_DDOT":0},{"OBJECT_NAME":"YAOGAN-29","OBJECT_ID":"2015-069A","EPOCH":"2026-03-14T14:02:23.109216","MEAN_MOTION":14.83003629,"ECCENTRICITY":0.00016717,"INCLINATION":98.0145,"RA_OF_ASC_NODE":102.028,"ARG_OF_PERICENTER":28.4811,"MEAN_ANOMALY":331.6493,"EPHEMERIS_TYPE":0,"CLASSIFICATION_TYPE":"U","NORAD_CAT_ID":41038,"ELEMENT_SET_NO":999,"REV_AT_EPOCH":55660,"BSTAR":0.00012234057,"MEAN_MOTION_DOT":9.4e-6,"MEAN_MOTION_DDOT":0},{"OBJECT_NAME":"ASTRO-H (HITOMI)","OBJECT_ID":"2016-012A","EPOCH":"2026-03-14T09:26:33.673056","MEAN_MOTION":15.1004042,"ECCENTRICITY":0.00097159,"INCLINATION":31.0006,"RA_OF_ASC_NODE":326.1936,"ARG_OF_PERICENTER":17.8304,"MEAN_ANOMALY":342.2673,"EPHEMERIS_TYPE":0,"CLASSIFICATION_TYPE":"U","NORAD_CAT_ID":41337,"ELEMENT_SET_NO":999,"REV_AT_EPOCH":55294,"BSTAR":0.00020874516,"MEAN_MOTION_DOT":3.577e-5,"MEAN_MOTION_DDOT":0}]
