ALOS (DAICHI)           
1 28931U 06002A   26073.47251319  .00001570  00000+0  27115-3 0  9992
2 28931  98.1224  29.4041 0000772  65.5936 294.5350 14.69827339 74181
H-2A R/B                
1 28932U 06002B   26073.36000846  .00013019  00000+0  64834-3 0  9998
2 28932  98.2410 220.7857 0052034 225.0507 134.6499 15.16531479 95143
RESURS-DK 1             
1 29228U 06021A   26073.56082418  .00004309  00000+0  25097-3 0  9995
2 29228  69.9325 224.4218 0001360 156.3357 203.7872 15.12784346 88266
CZ-4B R/B               
1 29507U 06046C   26073.55654763  .00005924  00000+0  29981-3 0  9999
2 29507  97.5589 118.4525 0031769 249.6387 110.1432 15.16959769 60780
CZ-2C R/B               
1 31114U 07010B   26073.58695535  .00000162  00000+0  93551-4 0  9997
2 31114  98.3982 186.6204 0057850 280.1051  79.3603 14.20248334980411
COSMO-SKYMED 1          
1 31598U 07023A   26073.61221537  .00005464  00000+0  48503-3 0  9994
2 31598  97.8882 264.6838 0001598  94.6063 265.5341 14.96582605 15646
COSMOS 2428             
1 31792U 07029A   26073.63196222  .00000012  00000+0  32119-4 0  9991
2 31792  70.9438 192.9701 0009320 272.0705  87.9349 14.12947079964790
SL-16 R/B               
1 31793U 07029B   26073.59070208  .00000251  00000+0  15487-3 0  9995
2 31793  70.9758 162.0835 0002286 276.2806 181.8581 14.14835383966064
KORONAS-FOTON           
1 33504U 09003A   26073.62693814  .00015202  00000+0  33821-3 0  9993
2 33504  82.4272 270.7436 0011662 133.5624 226.6594 15.43435520946501
CZ-2C R/B               
1 37731U 11030B   26073.48545955  .00001832  00000+0  23673-3 0  9996
2 37731  97.8546  30.6523 0051949 336.4178 136.7040 14.81242916790804
H-2A R/B                
1 38341U 12025E   26073.61386029  .00003831  00000+0  34837-3 0  9994
2 38341  98.4734  41.0545 0043238 297.8386  61.8454 14.95210925748957
SHIJIAN-16 (SJ-16)      
1 39358U 13057A   26073.65691259  .00002007  00000+0  19850-3 0  9999
2 39358  74.9735 175.6855 0015354  99.7692 260.5231 14.92370901672248
SL-4 R/B                
1 39679U 14021B   26073.62800748  .00018593  00000+0  40572-3 0  9991
2 39679  51.6067 313.1847 0097101 120.9779 240.0789 15.39357154657035
ALOS-2                  
1 39766U 14029A   26073.58824030  .00002108  00000+0  28866-3 0  9998
2 39766  97.9189 172.1146 0001479  93.6447 266.4934 14.79526276637595
YAOGAN-29               
1 41038U 15069A   26073.58498969  .00000940  00000+0  12234-3 0  9990
2 41038  98.0145 102.0280 0001671  28.4811 331.6493 14.83003629556604
ASTRO-H (HITOMI)        
1 41337U 16012A   26073.39344529  .00003577  00000+0  20875-3 0  9991
2 41337  31.0006 326.1936 0009715  17.8304 342.2673 15.10040420552944
